RSP-03                  
1 65732U 98067XL  26041.65535282  .01075305  65736-3  13883-2 0  9998
2 65732  51.6137 185.4785 0008634 314.7136  45.3173 16.06559094 22644
YOTSUBA-KULOVER         
1 65941U 98067XN  26041.62108836  .00127709  00000+0  96995-3 0  9998
2 65941  51.6247 196.6445 0004201 273.7808  86.2709 15.71400666 19232
BOTAN                   
1 65942U 98067XP  26041.66831634  .00368520  00000+0  14102-2 0  9999
2 65942  51.6183 192.4071 0006751 298.4455  61.5868 15.85896603 19298
E-KAGAKU-1              
1 65943U 98067XQ  26041.62201826  .00126449  00000+0  96500-3 0  9995
2 65943  51.6276 196.6625 0003758 288.3820  71.6768 15.71293302 19238
HRC MONOBLOCK CAMERA    
1 66052U 98067XR  26041.67959297  .00045451  00000+0  56726-3 0  9993
2 66052  51.6276 201.5485 0001393 357.5048   2.5937 15.59402032 18175
HTV-X1                  
1 66174U 25241A   26041.85871805  .00010337  00000+0  19842-3 0  9993
2 66174  51.6314 204.9914 0011071  85.6051 274.6202 15.48531925   512
SZ-21 MODULE            
1 66515U 25246C   26041.29426735  .00034158  00000+0  32044-3 0  9999
2 66515  41.4767  11.7270 0002700 289.3019  70.7530 15.66465298 13775
SHENZHOU-22             
1 66645U 25272A   26041.89257101  .00022594  00000+0  28056-3 0  9996
2 66645  41.4682  11.0651 0004356  54.5327 305.5918 15.59457517267647
SOYUZ-MS 28             
1 66664U 25275A   26041.85871805  .00010337  00000+0  19842-3 0  9994
2 66664  51.6314 204.9914 0011071  85.6051 274.6202 15.48531925  1281
DUPLEX                  
1 66906U 98067XS  26041.66310674  .00033721  00000+0  51085-3 0  9990
2 66906  51.6288 204.4385 0001317  72.6028 287.5106 15.54322290 10926
ISS OBJECT XT           
1 66907U 98067XT  26041.64158498  .00108458  00000+0  12053-2 0  9994
2 66907  51.6270 202.7925 0001772 258.6617 101.4178 15.62053811 10948
ISS OBJECT XU           
1 66908U 98067XU  26041.64097116  .00110282  00000+0  12235-2 0  9994
2 66908  51.6271 202.7865 0001616 263.4646  96.6164 15.62090146 10948
